CCSDS_OMM_VERS = 2.0
CREATION_DATE  = 
ORIGINATOR     = 

OBJECT_NAME    = DELTA 2 R/B(1)
OBJECT_ID      = 1990-008B
CENTER_NAME    = EARTH
REF_FRAME      = TEME
TIME_SYSTEM    = UTC
MEAN_ELEMENT_THEORY = SGP/SGP4

EPOCH          = 2025-12-28T19:57:33.717600
MEAN_MOTION    = 15.46650481
ECCENTRICITY   = .01085911
INCLINATION    = 35.6065
RA_OF_ASC_NODE = 276.5152
ARG_OF_PERICENTER = 324.1868
MEAN_ANOMALY   = 35.1621

EPHEMERIS_TYPE = 0
CLASSIFICATION_TYPE = U
NORAD_CAT_ID   = 20453
ELEMENT_SET_NO = 999
REV_AT_EPOCH   = 91512
BSTAR          = .85309293E-3
MEAN_MOTION_DOT = .55716E-3
MEAN_MOTION_DDOT = 0

CCSDS_OMM_VERS = 2.0
CREATION_DATE  = 
ORIGINATOR     = 

OBJECT_NAME    = COSMOS 2058
OBJECT_ID      = 1990-010A
CENTER_NAME    = EARTH
REF_FRAME      = TEME
TIME_SYSTEM    = UTC
MEAN_ELEMENT_THEORY = SGP/SGP4

EPOCH          = 2025-12-28T18:55:47.318304
MEAN_MOTION    = 15.10634557
ECCENTRICITY   = .00097842
INCLINATION    = 82.4706
RA_OF_ASC_NODE = 117.2453
ARG_OF_PERICENTER = 213.6087
MEAN_ANOMALY   = 146.4523

EPHEMERIS_TYPE = 0
CLASSIFICATION_TYPE = U
NORAD_CAT_ID   = 20465
ELEMENT_SET_NO = 999
REV_AT_EPOCH   = 93153
BSTAR          = .37056669E-3
MEAN_MOTION_DOT = .6159E-4
MEAN_MOTION_DDOT = 0

CCSDS_OMM_VERS = 2.0
CREATION_DATE  = 
ORIGINATOR     = 

OBJECT_NAME    = SL-14 R/B
OBJECT_ID      = 1990-010B
CENTER_NAME    = EARTH
REF_FRAME      = TEME
TIME_SYSTEM    = UTC
MEAN_ELEMENT_THEORY = SGP/SGP4

EPOCH          = 2025-12-28T22:24:28.200672
MEAN_MOTION    = 14.83488016
ECCENTRICITY   = .00200525
INCLINATION    = 82.5026
RA_OF_ASC_NODE = 333.8372
ARG_OF_PERICENTER = 168.5209
MEAN_ANOMALY   = 191.6468

EPHEMERIS_TYPE = 0
CLASSIFICATION_TYPE = U
NORAD_CAT_ID   = 20466
ELEMENT_SET_NO = 999
REV_AT_EPOCH   = 91799
BSTAR          = .86644258E-4
MEAN_MOTION_DOT = .738E-5
MEAN_MOTION_DDOT = 0

CCSDS_OMM_VERS = 2.0
CREATION_DATE  = 
ORIGINATOR     = 

OBJECT_NAME    = SL-14 R/B
OBJECT_ID      = 1990-018B
CENTER_NAME    = EARTH
REF_FRAME      = TEME
TIME_SYSTEM    = UTC
MEAN_ELEMENT_THEORY = SGP/SGP4

EPOCH          = 2025-12-28T13:05:56.732928
MEAN_MOTION    = 14.82063910
ECCENTRICITY   = .001564
INCLINATION    = 82.5220
RA_OF_ASC_NODE = 289.5923
ARG_OF_PERICENTER = 331.2264
MEAN_ANOMALY   = 28.8086

EPHEMERIS_TYPE = 0
CLASSIFICATION_TYPE = U
NORAD_CAT_ID   = 20511
ELEMENT_SET_NO = 999
REV_AT_EPOCH   = 91204
BSTAR          = .79916E-4
MEAN_MOTION_DOT = .659E-5
MEAN_MOTION_DDOT = 0

CCSDS_OMM_VERS = 2.0
CREATION_DATE  = 
ORIGINATOR     = 

OBJECT_NAME    = HST
OBJECT_ID      = 1990-037B
CENTER_NAME    = EARTH
REF_FRAME      = TEME
TIME_SYSTEM    = UTC
MEAN_ELEMENT_THEORY = SGP/SGP4

EPOCH          = 2025-12-28T19:00:53.341056
MEAN_MOTION    = 15.28255486
ECCENTRICITY   = .0002573
INCLINATION    = 28.4653
RA_OF_ASC_NODE = 163.2078
ARG_OF_PERICENTER = 57.7712
MEAN_ANOMALY   = 302.3132

EPHEMERIS_TYPE = 0
CLASSIFICATION_TYPE = U
NORAD_CAT_ID   = 20580
ELEMENT_SET_NO = 999
REV_AT_EPOCH   = 76245
BSTAR          = .27993212E-3
MEAN_MOTION_DOT = .8159E-4
MEAN_MOTION_DDOT = 0

CCSDS_OMM_VERS = 2.0
CREATION_DATE  = 
ORIGINATOR     = 

OBJECT_NAME    = SL-16 R/B
OBJECT_ID      = 1990-046B
CENTER_NAME    = EARTH
REF_FRAME      = TEME
TIME_SYSTEM    = UTC
MEAN_ELEMENT_THEORY = SGP/SGP4

EPOCH          = 2025-12-28T22:25:39.941184
MEAN_MOTION    = 14.14997734
ECCENTRICITY   = .00124501
INCLINATION    = 70.9992
RA_OF_ASC_NODE = 86.5120
ARG_OF_PERICENTER = 45.6585
MEAN_ANOMALY   = 314.5555

EPHEMERIS_TYPE = 0
CLASSIFICATION_TYPE = U
NORAD_CAT_ID   = 20625
ELEMENT_SET_NO = 999
REV_AT_EPOCH   = 83838
BSTAR          = .55355737E-4
MEAN_MOTION_DOT = .6E-6
MEAN_MOTION_DDOT = 0

CCSDS_OMM_VERS = 2.0
CREATION_DATE  = 
ORIGINATOR     = 

OBJECT_NAME    = COSMOS 2084
OBJECT_ID      = 1990-055A
CENTER_NAME    = EARTH
REF_FRAME      = TEME
TIME_SYSTEM    = UTC
MEAN_ELEMENT_THEORY = SGP/SGP4

EPOCH          = 2025-12-28T18:42:26.065440
MEAN_MOTION    = 15.05115105
ECCENTRICITY   = .00291324
INCLINATION    = 62.7889
RA_OF_ASC_NODE = 217.3364
ARG_OF_PERICENTER = 176.8738
MEAN_ANOMALY   = 183.2550

EPHEMERIS_TYPE = 0
CLASSIFICATION_TYPE = U
NORAD_CAT_ID   = 20663
ELEMENT_SET_NO = 999
REV_AT_EPOCH   = 92564
BSTAR          = .24625755E-3
MEAN_MOTION_DOT = .335E-4
MEAN_MOTION_DDOT = 0

CCSDS_OMM_VERS = 2.0
CREATION_DATE  = 
ORIGINATOR     = 

OBJECT_NAME    = SL-6 R/B(2)
OBJECT_ID      = 1990-055D
CENTER_NAME    = EARTH
REF_FRAME      = TEME
TIME_SYSTEM    = UTC
MEAN_ELEMENT_THEORY = SGP/SGP4

EPOCH          = 2025-12-28T19:12:21.899808
MEAN_MOTION    = 15.03156055
ECCENTRICITY   = .00146068
INCLINATION    = 62.7828
RA_OF_ASC_NODE = 134.8411
ARG_OF_PERICENTER = 319.4781
MEAN_ANOMALY   = 40.5230

EPHEMERIS_TYPE = 0
CLASSIFICATION_TYPE = U
NORAD_CAT_ID   = 20666
ELEMENT_SET_NO = 999
REV_AT_EPOCH   = 92753
BSTAR          = .26313352E-3
MEAN_MOTION_DOT = .3383E-4
MEAN_MOTION_DDOT = 0

CCSDS_OMM_VERS = 2.0
CREATION_DATE  = 
ORIGINATOR     = 

OBJECT_NAME    = SL-8 R/B
OBJECT_ID      = 1990-078B
CENTER_NAME    = EARTH
REF_FRAME      = TEME
TIME_SYSTEM    = UTC
MEAN_ELEMENT_THEORY = SGP/SGP4

EPOCH          = 2025-12-28T22:57:32.533920
MEAN_MOTION    = 14.86509978
ECCENTRICITY   = .03697537
INCLINATION    = 82.9055
RA_OF_ASC_NODE = 314.7887
ARG_OF_PERICENTER = 251.2811
MEAN_ANOMALY   = 104.7949

EPHEMERIS_TYPE = 0
CLASSIFICATION_TYPE = U
NORAD_CAT_ID   = 20775
ELEMENT_SET_NO = 999
REV_AT_EPOCH   = 79878
BSTAR          = .58854964E-3
MEAN_MOTION_DOT = .1911E-3
MEAN_MOTION_DDOT = 0

CCSDS_OMM_VERS = 2.0
CREATION_DATE  = 
ORIGINATOR     = 

OBJECT_NAME    = SL-8 R/B
OBJECT_ID      = 1991-006B
CENTER_NAME    = EARTH
REF_FRAME      = TEME
TIME_SYSTEM    = UTC
MEAN_ELEMENT_THEORY = SGP/SGP4

EPOCH          = 2025-12-28T15:45:58.078080
MEAN_MOTION    = 13.77492837
ECCENTRICITY   = .00214
INCLINATION    = 82.9411
RA_OF_ASC_NODE = 222.8732
ARG_OF_PERICENTER = 232.5429
MEAN_ANOMALY   = 181.9354

EPHEMERIS_TYPE = 0
CLASSIFICATION_TYPE = U
NORAD_CAT_ID   = 21088
ELEMENT_SET_NO = 999
REV_AT_EPOCH   = 75429
BSTAR          = .61163E-4
MEAN_MOTION_DOT = .76E-6
MEAN_MOTION_DDOT = 0

CCSDS_OMM_VERS = 2.0
CREATION_DATE  = 
ORIGINATOR     = 

OBJECT_NAME    = OKEAN-3
OBJECT_ID      = 1991-039A
CENTER_NAME    = EARTH
REF_FRAME      = TEME
TIME_SYSTEM    = UTC
MEAN_ELEMENT_THEORY = SGP/SGP4

EPOCH          = 2025-12-28T20:20:19.553856
MEAN_MOTION    = 15.04220474
ECCENTRICITY   = .00136823
INCLINATION    = 82.5164
RA_OF_ASC_NODE = 45.4546
ARG_OF_PERICENTER = 204.7478
MEAN_ANOMALY   = 155.3094

EPHEMERIS_TYPE = 0
CLASSIFICATION_TYPE = U
NORAD_CAT_ID   = 21397
ELEMENT_SET_NO = 999
REV_AT_EPOCH   = 85438
BSTAR          = .30096666E-3
MEAN_MOTION_DOT = .4216E-4
MEAN_MOTION_DDOT = 0

CCSDS_OMM_VERS = 2.0
CREATION_DATE  = 
ORIGINATOR     = 

OBJECT_NAME    = COSMOS 2151
OBJECT_ID      = 1991-042A
CENTER_NAME    = EARTH
REF_FRAME      = TEME
TIME_SYSTEM    = UTC
MEAN_ELEMENT_THEORY = SGP/SGP4

EPOCH          = 2025-12-28T20:04:25.668480
MEAN_MOTION    = 14.99754335
ECCENTRICITY   = .00114317
INCLINATION    = 82.4967
RA_OF_ASC_NODE = 151.9907
ARG_OF_PERICENTER = 302.3440
MEAN_ANOMALY   = 57.6676

EPHEMERIS_TYPE = 0
CLASSIFICATION_TYPE = U
NORAD_CAT_ID   = 21422
ELEMENT_SET_NO = 999
REV_AT_EPOCH   = 85257
BSTAR          = .27760772E-3
MEAN_MOTION_DOT = .3459E-4
MEAN_MOTION_DDOT = 0

