DELTA 2 R/B(1)          
1 20453U 90008B   25362.83164025  .00055716  00000+0  85309-3 0  9999
2 20453  35.6065 276.5152 0108591 324.1868  35.1621 15.46650481915121
COSMOS 2058             
1 20465U 90010A   25362.78874211  .00006159  00000+0  37057-3 0  9998
2 20465  82.4706 117.2453 0009784 213.6087 146.4523 15.10634557931537
SL-14 R/B               
1 20466U 90010B   25362.93365973  .00000738  00000+0  86644-4 0  9990
2 20466  82.5026 333.8372 0020052 168.5209 191.6468 14.83488016917995
SL-14 R/B               
1 20511U 90018B   25362.54579552  .00000659  00000+0  79916-4 0  9992
2 20511  82.5220 289.5923 0015640 331.2264  28.8086 14.82063910912047
HST                     
1 20580U 90037B   25362.79228404  .00008159  00000+0  27993-3 0  9993
2 20580  28.4653 163.2078 0002573  57.7712 302.3132 15.28255486762452
SL-16 R/B               
1 20625U 90046B   25362.93449006  .00000060  00000+0  55356-4 0  9990
2 20625  70.9992  86.5120 0012450  45.6585 314.5555 14.14997734838387
COSMOS 2084             
1 20663U 90055A   25362.77946835  .00003350  00000+0  24626-3 0  9996
2 20663  62.7889 217.3364 0029132 176.8738 183.2550 15.05115105925646
SL-6 R/B(2)             
1 20666U 90055D   25362.80025347  .00003383  00000+0  26313-3 0  9990
2 20666  62.7828 134.8411 0014606 319.4781  40.5230 15.03156055927538
SL-8 R/B                
1 20775U 90078B   25362.95662655  .00019110  00000+0  58855-3 0  9992
2 20775  82.9055 314.7887 0369753 251.2811 104.7949 14.86509978798783
SL-8 R/B                
1 21088U 91006B   25362.65692220  .00000076  00000+0  61163-4 0  9998
2 21088  82.9411 222.8732 0021400 232.5429 181.9354 13.77492837754295
OKEAN-3                 
1 21397U 91039A   25362.84744854  .00004216  00000+0  30097-3 0  9990
2 21397  82.5164  45.4546 0013682 204.7478 155.3094 15.04220474854384
COSMOS 2151             
1 21422U 91042A   25362.83640820  .00003459  00000+0  27761-3 0  9992
2 21422  82.4967 151.9907 0011431 302.3440  57.6676 14.99754335852571
